{"type": "FeatureCollection", "features": [ {"type": "Feature", "properties": {"norad_id": 39122, "name": "EUTELSAT 117 WEST A", "group": "eutelsat", "lat": 0.021290689577827246, "lon": 51.53744954078289, "alt_km": 35798.27678904361, "timestamp": "2025-12-02T06:27:52.692393+00:00", "meta": {"OBJECT_NAME": "EUTELSAT 117 WEST A", "OBJECT_ID": "2013-012A", "EPOCH": "2025-12-01T14:58:10.977024", "MEAN_MOTION": 1.0027172, "ECCENTRICITY": 0.0003054, "INCLINATION": 0.032, "RA_OF_ASC_NODE": 48.0184, "ARG_OF_PERICENTER": 202.9682, "MEAN_ANOMALY": 287.5076, "EPHEMERIS_TYPE": 0, "CLASSIFICATION_TYPE": "U", "NORAD_CAT_ID": 39122, "ELEMENT_SET_NO": 999, "REV_AT_EPOCH": 4645, "BSTAR": 0, "MEAN_MOTION_DOT": 8e-08, "MEAN_MOTION_DDOT": 0}, "tle": {"line1": "1 39122U 13012A   25335.62373816  .00000008  00000+0  00000+0 0  9994", "line2": "2 39122   0.0320  48.0184 0003054 202.9682 287.5076  1.00271720 46454"}}, "geometry": {"type": "Point", "coordinates": [51.53744954078289, 0.021290689577827246]}}, {"type": "Feature", "properties": {"norad_id": 39163, "name": "EUTELSAT 7B", "group": "eutelsat", "lat": -0.013268617887318106, "lon": 175.29330771263346, "alt_km": 35798.7281479955, "timestamp": "2025-12-02T06:27:52.692405+00:00", "meta": {"OBJECT_NAME": "EUTELSAT 7B", "OBJECT_ID": "2013-022A", "EPOCH": "2025-12-01T18:58:59.572128", "MEAN_MOTION": 1.00272197, "ECCENTRICITY": 0.0004243, "INCLINATION": 0.0677, "RA_OF_ASC_NODE": 355.9772, "ARG_OF_PERICENTER": 315.3692, "MEAN_ANOMALY": 51.3157, "EPHEMERIS_TYPE": 0, "CLASSIFICATION_TYPE": "U", "NORAD_CAT_ID": 39163, "ELEMENT_SET_NO": 999, "REV_AT_EPOCH": 4597, "BSTAR": 0, "MEAN_MOTION_DOT": 6.9e-07, "MEAN_MOTION_DDOT": 0}, "tle": {"line1": "1 39163U 13022A   25335.79096727  .00000069  00000+0  00000+0 0  9998", "line2": "2 39163   0.0677 355.9772 0004243 315.3692  51.3157  1.00272197 45970"}}, "geometry": {"type": "Point", "coordinates": [175.29330771263346, -0.013268617887318106]}}, {"type": "Feature", "properties": {"norad_id": 39612, "name": "EXPRESS-AT1", "group": "eutelsat", "lat": -0.029610305781310846, "lon": -135.66715782176038, "alt_km": 35786.30245641423, "timestamp": "2025-12-02T06:27:52.692417+00:00", "meta": {"OBJECT_NAME": "EXPRESS-AT1", "OBJECT_ID": "2014-010A", "EPOCH": "2025-12-02T03:46:40.765728", "MEAN_MOTION": 1.0026954, "ECCENTRICITY": 3.96e-05, "INCLINATION": 0.0131, "RA_OF_ASC_NODE": 275.0216, "ARG_OF_PERICENTER": 233.472, "MEAN_ANOMALY": 35.4546, "EPHEMERIS_TYPE": 0, "CLASSIFICATION_TYPE": "U", "NORAD_CAT_ID": 39612, "ELEMENT_SET_NO": 999, "REV_AT_EPOCH": 4284, "BSTAR": 0, "MEAN_MOTION_DOT": 1e-06, "MEAN_MOTION_DDOT": 0}, "tle": {"line1": "1 39612U 14010A   25336.15741627  .00000100  00000+0  00000+0 0  9998", "line2": "2 39612   0.0131 275.0216 0000396 233.4720  35.4546  1.00269540 42842"}}, "geometry": {"type": "Point", "coordinates": [-135.66715782176038, -0.029610305781310846]}}, {"type": "Feature", "properties": {"norad_id": 39613, "name": "EXPRESS-AT2", "group": "eutelsat", "lat": 0.004037420342763525, "lon": -51.81552422806712, "alt_km": 35781.756208891755, "timestamp": "2025-12-02T06:27:52.692429+00:00", "meta": {"OBJECT_NAME": "EXPRESS-AT2", "OBJECT_ID": "2014-010B", "EPOCH": "2025-12-01T20:24:38.620800", "MEAN_MOTION": 1.0027181, "ECCENTRICITY": 0.0001111, "INCLINATION": 0.0163, "RA_OF_ASC_NODE": 297.5637, "ARG_OF_PERICENTER": 349.5927, "MEAN_ANOMALY": 229.8308, "EPHEMERIS_TYPE": 0, "CLASSIFICATION_TYPE": "U", "NORAD_CAT_ID": 39613, "ELEMENT_SET_NO": 999, "REV_AT_EPOCH": 4252, "BSTAR": 0, "MEAN_MOTION_DOT": -2.6e-06, "MEAN_MOTION_DDOT": 0}, "tle": {"line1": "1 39613U 14010B   25335.85044700 -.00000260  00000+0  00000+0 0  9991", "line2": "2 39613   0.0163 297.5637 0001111 349.5927 229.8308  1.00271810 42521"}}, "geometry": {"type": "Point", "coordinates": [-51.81552422806712, 0.004037420342763525]}}, {"type": "Feature", "properties": {"norad_id": 39773, "name": "EUTELSAT 3B", "group": "eutelsat", "lat": -0.005814264664437975, "lon": 171.3709793882787, "alt_km": 35774.866663548826, "timestamp": "2025-12-02T06:27:52.692441+00:00", "meta": {"OBJECT_NAME": "EUTELSAT 3B", "OBJECT_ID": "2014-030A", "EPOCH": "2025-12-01T18:57:59.669280", "MEAN_MOTION": 1.00270526, "ECCENTRICITY": 0.000475, "INCLINATION": 0.0629, "RA_OF_ASC_NODE": 357.7791, "ARG_OF_PERICENTER": 228.3857, "MEAN_ANOMALY": 132.3386, "EPHEMERIS_TYPE": 0, "CLASSIFICATION_TYPE": "U", "NORAD_CAT_ID": 39773, "ELEMENT_SET_NO": 999, "REV_AT_EPOCH": 4208, "BSTAR": 0, "MEAN_MOTION_DOT": 4.1e-07, "MEAN_MOTION_DDOT": 0}, "tle": {"line1": "1 39773U 14030A   25335.79027395  .00000041  00000+0  00000+0 0  9990", "line2": "2 39773   0.0629 357.7791 0004750 228.3857 132.3386  1.00270526 42081"}}, "geometry": {"type": "Point", "coordinates": [171.3709793882787, -0.005814264664437975]}}, {"type": "Feature", "properties": {"norad_id": 40425, "name": "EUTELSAT 115 WEST B", "group": "eutelsat", "lat": 0.010916608322696147, "lon": 53.42194838222486, "alt_km": 35785.04233768597, "timestamp": "2025-12-02T06:27:52.692453+00:00", "meta": {"OBJECT_NAME": "EUTELSAT 115 WEST B", "OBJECT_ID": "2015-010B", "EPOCH": "2025-12-01T14:58:48.415872", "MEAN_MOTION": 1.00272371, "ECCENTRICITY": 2.04e-05, "INCLINATION": 0.0354, "RA_OF_ASC_NODE": 150.9347, "ARG_OF_PERICENTER": 253.7001, "MEAN_ANOMALY": 135.9102, "EPHEMERIS_TYPE": 0, "CLASSIFICATION_TYPE": "U", "NORAD_CAT_ID": 40425, "ELEMENT_SET_NO": 999, "REV_AT_EPOCH": 3941, "BSTAR": 0, "MEAN_MOTION_DOT": -4e-08, "MEAN_MOTION_DDOT": 0}, "tle": {"line1": "1 40425U 15010B   25335.62417148 -.00000004  00000+0  00000+0 0  9996", "line2": "2 40425   0.0354 150.9347 0000204 253.7001 135.9102  1.00272371 39413"}}, "geometry": {"type": "Point", "coordinates": [53.42194838222486, 0.010916608322696147]}}, {"type": "Feature", "properties": {"norad_id": 40875, "name": "EUTELSAT 8 WEST B", "group": "eutelsat", "lat": -0.005430017068532547, "lon": 160.27575228550663, "alt_km": 35787.07870840924, "timestamp": "2025-12-02T06:27:52.692465+00:00", "meta": {"OBJECT_NAME": "EUTELSAT 8 WEST B", "OBJECT_ID": "2015-039B", "EPOCH": "2025-12-01T18:54:44.978976", "MEAN_MOTION": 1.00271628, "ECCENTRICITY": 0.0004131, "INCLINATION": 0.0662, "RA_OF_ASC_NODE": 343.9222, "ARG_OF_PERICENTER": 269.5687, "MEAN_ANOMALY": 93.1048, "EPHEMERIS_TYPE": 0, "CLASSIFICATION_TYPE": "U", "NORAD_CAT_ID": 40875, "ELEMENT_SET_NO": 999, "REV_AT_EPOCH": 3767, "BSTAR": 0, "MEAN_MOTION_DOT": -4.4e-07, "MEAN_MOTION_DDOT": 0}, "tle": {"line1": "1 40875U 15039B   25335.78802059 -.00000044  00000+0  00000+0 0  9996", "line2": "2 40875   0.0662 343.9222 0004131 269.5687  93.1048  1.00271628 37672"}}, "geometry": {"type": "Point", "coordinates": [160.27575228550663, -0.005430017068532547]}}, {"type": "Feature", "properties": {"norad_id": 41310, "name": "EUTELSAT 9B", "group": "eutelsat", "lat": 0.03598872929622697, "lon": 177.24899804261034, "alt_km": 35784.902136638106, "timestamp": "2025-12-02T06:27:52.692476+00:00", "meta": {"OBJECT_NAME": "EUTELSAT 9B", "OBJECT_ID": "2016-005A", "EPOCH": "2025-12-01T18:59:37.011840", "MEAN_MOTION": 1.00270877, "ECCENTRICITY": 0.0004804, "INCLINATION": 0.0611, "RA_OF_ASC_NODE": 74.3606, "ARG_OF_PERICENTER": 189.1396, "MEAN_ANOMALY": 101.2975, "EPHEMERIS_TYPE": 0, "CLASSIFICATION_TYPE": "U", "NORAD_CAT_ID": 41310, "ELEMENT_SET_NO": 999, "REV_AT_EPOCH": 3613, "BSTAR": 0, "MEAN_MOTION_DOT": 8.3e-07, "MEAN_MOTION_DDOT": 0}, "tle": {"line1": "1 41310U 16005A   25335.79140060  .00000083  00000+0  00000+0 0  9995", "line2": "2 41310   0.0611  74.3606 0004804 189.1396 101.2975  1.00270877 36138"}}, "geometry": {"type": "Point", "coordinates": [177.24899804261034, 0.03598872929622697]}}, {"type": "Feature", "properties": {"norad_id": 41382, "name": "EUTELSAT 65 WEST A", "group": "eutelsat", "lat": 0.05393675454374845, "lon": 103.10566389090353, "alt_km": 35796.45348991549, "timestamp": "2025-12-02T06:27:52.692488+00:00", "meta": {"OBJECT_NAME": "EUTELSAT 65 WEST A", "OBJECT_ID": "2016-014A", "EPOCH": "2025-12-01T18:38:24.046080", "MEAN_MOTION": 1.00271304, "ECCENTRICITY": 0.0002682, "INCLINATION": 0.0511, "RA_OF_ASC_NODE": 339.2939, "ARG_OF_PERICENTER": 277.6691, "MEAN_ANOMALY": 28.3311, "EPHEMERIS_TYPE": 0, "CLASSIFICATION_TYPE": "U", "NORAD_CAT_ID": 41382, "ELEMENT_SET_NO": 999, "REV_AT_EPOCH": 3555, "BSTAR": 0, "MEAN_MOTION_DOT": -2.55e-06, "MEAN_MOTION_DDOT": 0}, "tle": {"line1": "1 41382U 16014A   25335.77666720 -.00000255  00000+0  00000+0 0  9990", "line2": "2 41382   0.0511 339.2939 0002682 277.6691  28.3311  1.00271304 35555"}}, "geometry": {"type": "Point", "coordinates": [103.10566389090353, 0.05393675454374845]}}, {"type": "Feature", "properties": {"norad_id": 41589, "name": "EUTELSAT 117 WEST B", "group": "eutelsat", "lat": -0.015951219898064792, "lon": 51.330139075081675, "alt_km": 35786.199016254046, "timestamp": "2025-12-02T06:27:52.692500+00:00", "meta": {"OBJECT_NAME": "EUTELSAT 117 WEST B", "OBJECT_ID": "2016-038B", "EPOCH": "2025-12-01T14:58:10.977024", "MEAN_MOTION": 1.00272248, "ECCENTRICITY": 1.08e-05, "INCLINATION": 0.0065, "RA_OF_ASC_NODE": 141.8344, "ARG_OF_PERICENTER": 143.4656, "MEAN_ANOMALY": 252.9964, "EPHEMERIS_TYPE": 0, "CLASSIFICATION_TYPE": "U", "NORAD_CAT_ID": 41589, "ELEMENT_SET_NO": 999, "REV_AT_EPOCH": 3468, "BSTAR": 0, "MEAN_MOTION_DOT": 1e-07, "MEAN_MOTION_DDOT": 0}, "tle": {"line1": "1 41589U 16038B   25335.62373816  .00000010  00000+0  00000+0 0  9998", "line2": "2 41589   0.0065 141.8344 0000108 143.4656 252.9964  1.00272248 34687"}}, "geometry": {"type": "Point", "coordinates": [51.330139075081675, -0.015951219898064792]}}]}